{
  "links" : {
    "next" : "https://api.nasa.gov/neo/rest/v1/feed?start_date=2013-09-09&end_date=2013-09-09&detailed=true&api_key=t0TVs3DtDT2H8Oy2Zy8m2eVrNsAVKAexjcZXUckd",
    "prev" : "https://api.nasa.gov/neo/rest/v1/feed?start_date=2013-09-07&end_date=2013-09-07&detailed=true&api_key=t0TVs3DtDT2H8Oy2Zy8m2eVrNsAVKAexjcZXUckd",
    "self" : "https://api.nasa.gov/neo/rest/v1/feed?start_date=2013-09-08&end_date=2013-09-08&detailed=true&api_key=t0TVs3DtDT2H8Oy2Zy8m2eVrNsAVKAexjcZXUckd"
  },
  "element_count" : 8,
  "near_earth_objects" : {
    "2013-09-08" : [ {
      "links" : {
        "self" : "https://api.nasa.gov/neo/rest/v1/neo/3772759?api_key=t0TVs3DtDT2H8Oy2Zy8m2eVrNsAVKAexjcZXUckd"
      },
      "neo_reference_id" : "3772759",
      "name" : "(2017 FW90)",
      "nasa_jpl_url" : "http://ssd.jpl.nasa.gov/sbdb.cgi?sstr=3772759",
      "absolute_magnitude_h" : 28.15,
      "estimated_diameter" : {
        "kilometers" : {
          "estimated_diameter_min" : 0.0062309602,
          "estimated_diameter_max" : 0.0139328506
        },
        "meters" : {
          "estimated_diameter_min" : 6.2309601911,
          "estimated_diameter_max" : 13.9328505524
        },
        "miles" : {
          "estimated_diameter_min" : 0.003871738,
          "estimated_diameter_max" : 0.0086574693
        },
        "feet" : {
          "estimated_diameter_min" : 20.4427834334,
          "estimated_diameter_max" : 45.7114534065
        }
      },
      "is_potentially_hazardous_asteroid" : false,
      "close_approach_data" : [ {
        "close_approach_date" : "2013-09-08",
        "epoch_date_close_approach" : 1378623600000,
        "relative_velocity" : {
          "kilometers_per_second" : "16.8209242396",
          "kilometers_per_hour" : "60555.3272625298",
          "miles_per_hour" : "37626.7254315425"
        },
        "miss_distance" : {
          "astronomical" : "0.4341441964",
          "lunar" : "168.8820953369",
          "kilometers" : "64947048",
          "miles" : "40356224"
        },
        "orbiting_body" : "Earth"
      } ],
      "orbital_data" : {
        "orbit_id" : "14",
        "orbit_determination_date" : "2017-05-08 14:22:55",
        "orbit_uncertainty" : "4",
        "minimum_orbit_intersection" : "4.42295E-5",
        "jupiter_tisserand_invariant" : "5.916",
        "epoch_osculation" : "2458000.5",
        "eccentricity" : ".1458940283310568",
        "semi_major_axis" : "1.033210407631443",
        "inclination" : "3.174319580769291",
        "ascending_node_longitude" : "10.44411032877468",
        "orbital_period" : "383.6026380708879",
        "perihelion_distance" : ".8824711791485181",
        "perihelion_argument" : "85.73153235954244",
        "aphelion_distance" : "1.183949636114367",
        "perihelion_time" : "2458145.012052374404",
        "mean_anomaly" : "224.3796113696917",
        "mean_motion" : ".9384711268160616",
        "equinox" : "J2000"
      }
    }, {
      "links" : {
        "self" : "https://api.nasa.gov/neo/rest/v1/neo/2490581?api_key=t0TVs3DtDT2H8Oy2Zy8m2eVrNsAVKAexjcZXUckd"
      },
      "neo_reference_id" : "2490581",
      "name" : "490581 (2009 WZ104)",
      "nasa_jpl_url" : "http://ssd.jpl.nasa.gov/sbdb.cgi?sstr=2490581",
      "absolute_magnitude_h" : 20.4,
      "estimated_diameter" : {
        "kilometers" : {
          "estimated_diameter_min" : 0.2210828104,
          "estimated_diameter_max" : 0.4943561926
        },
        "meters" : {
          "estimated_diameter_min" : 221.0828103591,
          "estimated_diameter_max" : 494.3561926196
        },
        "miles" : {
          "estimated_diameter_min" : 0.137374447,
          "estimated_diameter_max" : 0.3071786018
        },
        "feet" : {
          "estimated_diameter_min" : 725.3373275385,
          "estimated_diameter_max" : 1621.9035709942
        }
      },
      "is_potentially_hazardous_asteroid" : true,
      "close_approach_data" : [ {
        "close_approach_date" : "2013-09-08",
        "epoch_date_close_approach" : 1378623600000,
        "relative_velocity" : {
          "kilometers_per_second" : "5.6633232376",
          "kilometers_per_hour" : "20387.9636552577",
          "miles_per_hour" : "12668.2877501238"
        },
        "miss_distance" : {
          "astronomical" : "0.2813728256",
          "lunar" : "109.4540252686",
          "kilometers" : "42092776",
          "miles" : "26155238"
        },
        "orbiting_body" : "Earth"
      } ],
      "orbital_data" : {
        "orbit_id" : "56",
        "orbit_determination_date" : "2017-05-15 19:06:41",
        "orbit_uncertainty" : "1",
        "minimum_orbit_intersection" : ".0311462",
        "jupiter_tisserand_invariant" : "6.867",
        "epoch_osculation" : "2458000.5",
        "eccentricity" : ".1926426222105336",
        "semi_major_axis" : ".8553588787643515",
        "inclination" : "9.834617742563426",
        "ascending_node_longitude" : "263.2779736491007",
        "orbital_period" : "288.9488554643783",
        "perihelion_distance" : ".6905803014281249",
        "perihelion_argument" : "10.53439141984141",
        "aphelion_distance" : "1.020137456100578",
        "perihelion_time" : "2457942.726287002592",
        "mean_anomaly" : "71.97999329549448",
        "mean_motion" : "1.245895227449277",
        "equinox" : "J2000"
      }
    } ]
  }
}